[{"OBJECT_NAME":"STARLINK-36758","OBJECT_ID":"2026-036Y","EPOCH":"2026-03-08T13:24:54.930240","MEAN_MOTION":15.8205895,"ECCENTRICITY":0.00019627,"INCLINATION":42.9987,"RA_OF_ASC_NODE":256.5014,"ARG_OF_PERICENTER":233.9897,"MEAN_ANOMALY":126.0793,"EPHEMERIS_TYPE":0,"CLASSIFICATION_TYPE":"U","NORAD_CAT_ID":67926,"ELEMENT_SET_NO":999,"REV_AT_EPOCH":349,"BSTAR":0.0014052382,"MEAN_MOTION_DOT":0.00306701,"MEAN_MOTION_DDOT":0},{"OBJECT_NAME":"STARLINK-36728","OBJECT_ID":"2026-036Z","EPOCH":"2026-03-08T13:22:43.709376","MEAN_MOTION":15.82213901,"ECCENTRICITY":0.00019112,"INCLINATION":42.9987,"RA_OF_ASC_NODE":256.4889,"ARG_OF_PERICENTER":264.6537,"MEAN_ANOMALY":95.4117,"EPHEMERIS_TYPE":0,"CLASSIFICATION_TYPE":"U","NORAD_CAT_ID":67927,"ELEMENT_SET_NO":999,"REV_AT_EPOCH":349,"BSTAR":0.0018315761,"MEAN_MOTION_DOT":0.00407604,"MEAN_MOTION_DDOT":0},{"OBJECT_NAME":"STARLINK-36771","OBJECT_ID":"2026-036AA","EPOCH":"2026-03-08T13:23:50.367840","MEAN_MOTION":15.8208538,"ECCENTRICITY":0.00019223,"INCLINATION":42.9989,"RA_OF_ASC_NODE":256.495,"ARG_OF_PERICENTER":291.2908,"MEAN_ANOMALY":68.7758,"EPHEMERIS_TYPE":0,"CLASSIFICATION_TYPE":"U","NORAD_CAT_ID":67928,"ELEMENT_SET_NO":999,"REV_AT_EPOCH":349,"BSTAR":0.0017527196,"MEAN_MOTION_DOT":0.00386751,"MEAN_MOTION_DDOT":0},{"OBJECT_NAME":"STARLINK-36809","OBJECT_ID":"2026-036AB","EPOCH":"2026-03-08T13:21:40.874976","MEAN_MOTION":15.82083061,"ECCENTRICITY":0.00019214,"INCLINATION":42.9988,"RA_OF_ASC_NODE":256.4825,"ARG_OF_PERICENTER":280.6471,"MEAN_ANOMALY":79.4184,"EPHEMERIS_TYPE":0,"CLASSIFICATION_TYPE":"U","NORAD_CAT_ID":67929,"ELEMENT_SET_NO":999,"REV_AT_EPOCH":349,"BSTAR":0.0017335142,"MEAN_MOTION_DOT":0.00382265,"MEAN_MOTION_DDOT":0},{"OBJECT_NAME":"STARLINK-36865","OBJECT_ID":"2026-036AC","EPOCH":"2026-03-08T13:19:31.441728","MEAN_MOTION":15.82067693,"ECCENTRICITY":0.00018573,"INCLINATION":42.9989,"RA_OF_ASC_NODE":256.4698,"ARG_OF_PERICENTER":289.0675,"MEAN_ANOMALY":70.9995,"EPHEMERIS_TYPE":0,"CLASSIFICATION_TYPE":"U","NORAD_CAT_ID":67930,"ELEMENT_SET_NO":999,"REV_AT_EPOCH":349,"BSTAR":0.0013961612,"MEAN_MOTION_DOT":0.00304771,"MEAN_MOTION_DDOT":0},{"OBJECT_NAME":"STARLINK-36781","OBJECT_ID":"2026-036AD","EPOCH":"2026-03-08T13:20:34.355616","MEAN_MOTION":15.8222846,"ECCENTRICITY":0.00017077,"INCLINATION":42.9989,"RA_OF_ASC_NODE":256.4762,"ARG_OF_PERICENTER":281.4035,"MEAN_ANOMALY":78.6645,"EPHEMERIS_TYPE":0,"CLASSIFICATION_TYPE":"U","NORAD_CAT_ID":67931,"ELEMENT_SET_NO":999,"REV_AT_EPOCH":349,"BSTAR":0.0021581668,"MEAN_MOTION_DOT":0.00485101,"MEAN_MOTION_DDOT":0},{"OBJECT_NAME":"STARLINK-36301","OBJECT_ID":"2026-037A","EPOCH":"2026-03-08T14:00:01.999872","MEAN_MOTION":15.82273438,"ECCENTRICITY":0.00011566,"INCLINATION":42.999,"RA_OF_ASC_NODE":205.3609,"ARG_OF_PERICENTER":276.6666,"MEAN_ANOMALY":166.2211,"EPHEMERIS_TYPE":0,"CLASSIFICATION_TYPE":"U","NORAD_CAT_ID":67932,"ELEMENT_SET_NO":999,"REV_AT_EPOCH":293,"BSTAR":-0.0020319971,"MEAN_MOTION_DOT":-0.00413551,"MEAN_MOTION_DDOT":0},{"OBJECT_NAME":"STARLINK-36852","OBJECT_ID":"2026-037B","EPOCH":"2026-03-08T14:00:01.999872","MEAN_MOTION":15.82515515,"ECCENTRICITY":0.0001522,"INCLINATION":42.9992,"RA_OF_ASC_NODE":205.3504,"ARG_OF_PERICENTER":271.6037,"MEAN_ANOMALY":175.4123,"EPHEMERIS_TYPE":0,"CLASSIFICATION_TYPE":"U","NORAD_CAT_ID":67933,"ELEMENT_SET_NO":999,"REV_AT_EPOCH":302,"BSTAR":-0.0036394374,"MEAN_MOTION_DOT":-0.0072291,"MEAN_MOTION_DDOT":0},{"OBJECT_NAME":"STARLINK-36861","OBJECT_ID":"2026-037C","EPOCH":"2026-03-08T14:00:01.999872","MEAN_MOTION":15.82631557,"ECCENTRICITY":0.0001425,"INCLINATION":42.999,"RA_OF_ASC_NODE":205.3402,"ARG_OF_PERICENTER":280.1573,"MEAN_ANOMALY":171.0333,"EPHEMERIS_TYPE":0,"CLASSIFICATION_TYPE":"U","NORAD_CAT_ID":67934,"ELEMENT_SET_NO":999,"REV_AT_EPOCH":302,"BSTAR":-0.0040116698,"MEAN_MOTION_DOT":-0.00794561,"MEAN_MOTION_DDOT":0},{"OBJECT_NAME":"STARLINK-36860","OBJECT_ID":"2026-037D","EPOCH":"2026-03-08T14:00:01.999872","MEAN_MOTION":15.82791619,"ECCENTRICITY":0.00016603,"INCLINATION":42.999,"RA_OF_ASC_NODE":205.33,"ARG_OF_PERICENTER":271.7543,"MEAN_ANOMALY":183.6072,"EPHEMERIS_TYPE":0,"CLASSIFICATION_TYPE":"U","NORAD_CAT_ID":67935,"ELEMENT_SET_NO":999,"REV_AT_EPOCH":302,"BSTAR":-0.005117575,"MEAN_MOTION_DOT":-0.00997214,"MEAN_MOTION_DDOT":0},{"OBJECT_NAME":"STARLINK-36848","OBJECT_ID":"2026-037E","EPOCH":"2026-03-08T14:00:01.999872","MEAN_MOTION":15.83114335,"ECCENTRICITY":0.00016604,"INCLINATION":42.9989,"RA_OF_ASC_NODE":205.3084,"ARG_OF_PERICENTER":279.3189,"MEAN_ANOMALY":184.3204,"EPHEMERIS_TYPE":0,"CLASSIFICATION_TYPE":"U","NORAD_CAT_ID":67936,"ELEMENT_SET_NO":999,"REV_AT_EPOCH":302,"BSTAR":-0.0066883192,"MEAN_MOTION_DOT":-0.01305415,"MEAN_MOTION_DDOT":0},{"OBJECT_NAME":"STARLINK-36370","OBJECT_ID":"2026-037F","EPOCH":"2026-03-08T14:00:01.999872","MEAN_MOTION":15.82947823,"ECCENTRICITY":0.0001685,"INCLINATION":42.999,"RA_OF_ASC_NODE":205.3194,"ARG_OF_PERICENTER":276.9609,"MEAN_ANOMALY":182.5703,"EPHEMERIS_TYPE":0,"CLASSIFICATION_TYPE":"U","NORAD_CAT_ID":67937,"ELEMENT_SET_NO":999,"REV_AT_EPOCH":302,"BSTAR":-0.0061993163,"MEAN_MOTION_DOT":-0.01212172,"MEAN_MOTION_DDOT":0},{"OBJECT_NAME":"STARLINK-36371","OBJECT_ID":"2026-037G","EPOCH":"2026-03-08T14:00:01.999872","MEAN_MOTION":15.83296205,"ECCENTRICITY":0.00015199,"INCLINATION":42.999,"RA_OF_ASC_NODE":205.2978,"ARG_OF_PERICENTER":277.4211,"MEAN_ANOMALY":190.2633,"EPHEMERIS_TYPE":0,"CLASSIFICATION_TYPE":"U","NORAD_CAT_ID":67938,"ELEMENT_SET_NO":999,"REV_AT_EPOCH":302,"BSTAR":-0.0068898455,"MEAN_MOTION_DOT":-0.01349978,"MEAN_MOTION_DDOT":0},{"OBJECT_NAME":"STARLINK-36246","OBJECT_ID":"2026-037H","EPOCH":"2026-03-08T14:00:01.999872","MEAN_MOTION":15.83501909,"ECCENTRICITY":0.00016236,"INCLINATION":42.9989,"RA_OF_ASC_NODE":205.2882,"ARG_OF_PERICENTER":283.7257,"MEAN_ANOMALY":187.9763,"EPHEMERIS_TYPE":0,"CLASSIFICATION_TYPE":"U","NORAD_CAT_ID":67939,"ELEMENT_SET_NO":999,"REV_AT_EPOCH":293,"BSTAR":-0.0074593551,"MEAN_MOTION_DOT":-0.01489375,"MEAN_MOTION_DDOT":0},{"OBJECT_NAME":"STARLINK-36907","OBJECT_ID":"2026-037J","EPOCH":"2026-03-08T14:00:01.999872","MEAN_MOTION":15.8384868,"ECCENTRICITY":0.00011949,"INCLINATION":42.9989,"RA_OF_ASC_NODE":205.2564,"ARG_OF_PERICENTER":280.0215,"MEAN_ANOMALY":203.8257,"EPHEMERIS_TYPE":0,"CLASSIFICATION_TYPE":"U","NORAD_CAT_ID":67940,"ELEMENT_SET_NO":999,"REV_AT_EPOCH":302,"BSTAR":-0.0070352778,"MEAN_MOTION_DOT":-0.0143491,"MEAN_MOTION_DDOT":0},{"OBJECT_NAME":"STARLINK-36927","OBJECT_ID":"2026-037K","EPOCH":"2026-03-08T14:00:01.999872","MEAN_MOTION":15.84153644,"ECCENTRICITY":0.00012659,"INCLINATION":42.9989,"RA_OF_ASC_NODE":205.2362,"ARG_OF_PERICENTER":281.5819,"MEAN_ANOMALY":210.227,"EPHEMERIS_TYPE":0,"CLASSIFICATION_TYPE":"U","NORAD_CAT_ID":67941,"ELEMENT_SET_NO":999,"REV_AT_EPOCH":302,"BSTAR":-0.0074210389,"MEAN_MOTION_DOT":-0.01524018,"MEAN_MOTION_DDOT":0},{"OBJECT_NAME":"STARLINK-36914","OBJECT_ID":"2026-037L","EPOCH":"2026-03-08T14:00:01.999872","MEAN_MOTION":15.83579224,"ECCENTRICITY":0.00015788,"INCLINATION":42.9991,"RA_OF_ASC_NODE":205.277,"ARG_OF_PERICENTER":280.713,"MEAN_ANOMALY":195.1549,"EPHEMERIS_TYPE":0,"CLASSIFICATION_TYPE":"U","NORAD_CAT_ID":67942,"ELEMENT_SET_NO":999,"REV_AT_EPOCH":302,"BSTAR":-0.0075893715,"MEAN_MOTION_DOT":-0.01517172,"MEAN_MOTION_DDOT":0},{"OBJECT_NAME":"STARLINK-36851","OBJECT_ID":"2026-037M","EPOCH":"2026-03-08T14:00:01.999872","MEAN_MOTION":15.83712388,"ECCENTRICITY":0.00015865,"INCLINATION":42.9988,"RA_OF_ASC_NODE":205.2669,"ARG_OF_PERICENTER":285.7133,"MEAN_ANOMALY":194.1641,"EPHEMERIS_TYPE":0,"CLASSIFICATION_TYPE":"U","NORAD_CAT_ID":67943,"ELEMENT_SET_NO":999,"REV_AT_EPOCH":302,"BSTAR":-0.0073764954,"MEAN_MOTION_DOT":-0.01487976,"MEAN_MOTION_DDOT":0},{"OBJECT_NAME":"STARLINK-36892","OBJECT_ID":"2026-037N","EPOCH":"2026-03-08T14:00:01.999872","MEAN_MOTION":15.84020269,"ECCENTRICITY":0.00015159,"INCLINATION":42.9988,"RA_OF_ASC_NODE":205.247,"ARG_OF_PERICENTER":278.5719,"MEAN_ANOMALY":209.259,"EPHEMERIS_TYPE":0,"CLASSIFICATION_TYPE":"U","NORAD_CAT_ID":67944,"ELEMENT_SET_NO":999,"REV_AT_EPOCH":302,"BSTAR":-0.007467587,"MEAN_MOTION_DOT":-0.01523941,"MEAN_MOTION_DDOT":0},{"OBJECT_NAME":"STARLINK-36908","OBJECT_ID":"2026-037P","EPOCH":"2026-03-08T14:00:01.999872","MEAN_MOTION":15.84220142,"ECCENTRICITY":0.00013945,"INCLINATION":42.9988,"RA_OF_ASC_NODE":205.2259,"ARG_OF_PERICENTER":283.7279,"MEAN_ANOMALY":212.2557,"EPHEMERIS_TYPE":0,"CLASSIFICATION_TYPE":"U","NORAD_CAT_ID":67945,"ELEMENT_SET_NO":999,"REV_AT_EPOCH":302,"BSTAR":-0.0075458816,"MEAN_MOTION_DOT":-0.01551006,"MEAN_MOTION_DDOT":0},{"OBJECT_NAME":"STARLINK-36909","OBJECT_ID":"2026-037Q","EPOCH":"2026-03-08T14:00:01.999872","MEAN_MOTION":15.84401589,"ECCENTRICITY":0.00013952,"INCLINATION":42.9988,"RA_OF_ASC_NODE":205.2165,"ARG_OF_PERICENTER":283.0804,"MEAN_ANOMALY":216.7007,"EPHEMERIS_TYPE":0,"CLASSIFICATION_TYPE":"U","NORAD_CAT_ID":67946,"ELEMENT_SET_NO":999,"REV_AT_EPOCH":302,"BSTAR":-0.0073837181,"MEAN_MOTION_DOT":-0.01533498,"MEAN_MOTION_DDOT":0},{"OBJECT_NAME":"STARLINK-36920","OBJECT_ID":"2026-037R","EPOCH":"2026-03-08T14:00:01.999872","MEAN_MOTION":15.84491243,"ECCENTRICITY":0.00012518,"INCLINATION":42.9988,"RA_OF_ASC_NODE":205.2058,"ARG_OF_PERICENTER":280.2076,"MEAN_ANOMALY":223.6528,"EPHEMERIS_TYPE":0,"CLASSIFICATION_TYPE":"U","NORAD_CAT_ID":67947,"ELEMENT_SET_NO":999,"REV_AT_EPOCH":302,"BSTAR":-0.0074291528,"MEAN_MOTION_DOT":-0.01547583,"MEAN_MOTION_DDOT":0},{"OBJECT_NAME":"STARLINK-36873","OBJECT_ID":"2026-037S","EPOCH":"2026-03-08T14:00:01.999872","MEAN_MOTION":15.84638002,"ECCENTRICITY":0.0001252,"INCLINATION":42.999,"RA_OF_ASC_NODE":205.1963,"ARG_OF_PERICENTER":283.0079,"MEAN_ANOMALY":224.7312,"EPHEMERIS_TYPE":0,"CLASSIFICATION_TYPE":"U","NORAD_CAT_ID":67948,"ELEMENT_SET_NO":999,"REV_AT_EPOCH":302,"BSTAR":-0.0073752526,"MEAN_MOTION_DOT":-0.01547386,"MEAN_MOTION_DDOT":0}]
